[{"OBJECT_NAME":"SNAP-3 JIMI","OBJECT_ID":"2015-058M","EPOCH":"2026-02-01T20:22:42.709152","MEAN_MOTION":15.00544836,"ECCENTRICITY":0.0108067,"INCLINATION":64.766,"RA_OF_ASC_NODE":287.4388,"ARG_OF_PERICENTER":111.4924,"MEAN_ANOMALY":249.7757,"EPHEMERIS_TYPE":0,"CLASSIFICATION_TYPE":"U","NORAD_CAT_ID":40975,"ELEMENT_SET_NO":999,"REV_AT_EPOCH":9390,"BSTAR":0.00038870197,"MEAN_MOTION_DOT":5.386e-5,"MEAN_MOTION_DDOT":0},{"OBJECT_NAME":"PROPCUBE 1 (FLORA)","OBJECT_ID":"2015-058N","EPOCH":"2026-02-01T23:30:43.367904","MEAN_MOTION":14.88372634,"ECCENTRICITY":0.01320812,"INCLINATION":64.7764,"RA_OF_ASC_NODE":354.0137,"ARG_OF_PERICENTER":114.1318,"MEAN_ANOMALY":247.3671,"EPHEMERIS_TYPE":0,"CLASSIFICATION_TYPE":"U","NORAD_CAT_ID":40976,"ELEMENT_SET_NO":999,"REV_AT_EPOCH":9613,"BSTAR":0.00022347778,"MEAN_MOTION_DOT":2.266e-5,"MEAN_MOTION_DDOT":0},{"OBJECT_NAME":"SINOD-D 3","OBJECT_ID":"2015-058P","EPOCH":"2026-02-01T23:25:48.099360","MEAN_MOTION":14.92826906,"ECCENTRICITY":0.01206043,"INCLINATION":64.7748,"RA_OF_ASC_NODE":337.6719,"ARG_OF_PERICENTER":112.4696,"MEAN_ANOMALY":248.9241,"EPHEMERIS_TYPE":0,"CLASSIFICATION_TYPE":"U","NORAD_CAT_ID":40977,"ELEMENT_SET_NO":999,"REV_AT_EPOCH":9456,"BSTAR":0.00029584047,"MEAN_MOTION_DOT":3.361e-5,"MEAN_MOTION_DDOT":0},{"OBJECT_NAME":"HORYU-4","OBJECT_ID":"2016-012D","EPOCH":"2026-02-01T21:19:57.499680","MEAN_MOTION":15.56987074,"ECCENTRICITY":0.00028499,"INCLINATION":30.9936,"RA_OF_ASC_NODE":317.2511,"ARG_OF_PERICENTER":14.2682,"MEAN_ANOMALY":345.8049,"EPHEMERIS_TYPE":0,"CLASSIFICATION_TYPE":"U","NORAD_CAT_ID":41340,"ELEMENT_SET_NO":999,"REV_AT_EPOCH":54951,"BSTAR":0.00081297398,"MEAN_MOTION_DOT":0.0006143,"MEAN_MOTION_DDOT":0},{"OBJECT_NAME":"RAVAN","OBJECT_ID":"2016-067B","EPOCH":"2026-02-01T21:12:32.490432","MEAN_MOTION":15.43203591,"ECCENTRICITY":0.00079188,"INCLINATION":98.0109,"RA_OF_ASC_NODE":267.9662,"ARG_OF_PERICENTER":111.6567,"MEAN_ANOMALY":248.5523,"EPHEMERIS_TYPE":0,"CLASSIFICATION_TYPE":"U","NORAD_CAT_ID":41849,"ELEMENT_SET_NO":999,"REV_AT_EPOCH":50675,"BSTAR":0.00075699631,"MEAN_MOTION_DOT":0.00033633,"MEAN_MOTION_DDOT":0},{"OBJECT_NAME":"CELTEE 1","OBJECT_ID":"2016-067C","EPOCH":"2026-02-01T13:37:06.149856","MEAN_MOTION":15.18064939,"ECCENTRICITY":0.00015823,"INCLINATION":98.0851,"RA_OF_ASC_NODE":249.8713,"ARG_OF_PERICENTER":42.1759,"MEAN_ANOMALY":317.9595,"EPHEMERIS_TYPE":0,"CLASSIFICATION_TYPE":"U","NORAD_CAT_ID":41850,"ELEMENT_SET_NO":999,"REV_AT_EPOCH":50529,"BSTAR":0.00028659121,"MEAN_MOTION_DOT":5.762e-5,"MEAN_MOTION_DDOT":0},{"OBJECT_NAME":"OPTICUBE 04","OBJECT_ID":"2016-067D","EPOCH":"2026-02-01T12:07:16.667328","MEAN_MOTION":15.08941074,"ECCENTRICITY":0.00150142,"INCLINATION":98.0819,"RA_OF_ASC_NODE":237.6395,"ARG_OF_PERICENTER":212.9628,"MEAN_ANOMALY":147.0664,"EPHEMERIS_TYPE":0,"CLASSIFICATION_TYPE":"U","NORAD_CAT_ID":41851,"ELEMENT_SET_NO":999,"REV_AT_EPOCH":50470,"BSTAR":0.00019865459,"MEAN_MOTION_DOT":3.072e-5,"MEAN_MOTION_DDOT":0},{"OBJECT_NAME":"AEROCUBE 8D","OBJECT_ID":"2016-067E","EPOCH":"2026-02-01T20:14:49.600032","MEAN_MOTION":15.22157554,"ECCENTRICITY":0.00022973,"INCLINATION":98.0869,"RA_OF_ASC_NODE":252.7667,"ARG_OF_PERICENTER":233.2776,"MEAN_ANOMALY":126.8247,"EPHEMERIS_TYPE":0,"CLASSIFICATION_TYPE":"U","NORAD_CAT_ID":41852,"ELEMENT_SET_NO":999,"REV_AT_EPOCH":50546,"BSTAR":0.00033452183,"MEAN_MOTION_DOT":7.596e-5,"MEAN_MOTION_DDOT":0},{"OBJECT_NAME":"AEROCUBE 8C","OBJECT_ID":"2016-067F","EPOCH":"2026-02-01T13:27:09.912960","MEAN_MOTION":15.22366624,"ECCENTRICITY":0.00056496,"INCLINATION":98.0733,"RA_OF_ASC_NODE":249.8725,"ARG_OF_PERICENTER":157.3509,"MEAN_ANOMALY":202.7976,"EPHEMERIS_TYPE":0,"CLASSIFICATION_TYPE":"U","NORAD_CAT_ID":41853,"ELEMENT_SET_NO":999,"REV_AT_EPOCH":50541,"BSTAR":0.00036714448,"MEAN_MOTION_DOT":8.4e-5,"MEAN_MOTION_DDOT":0},{"OBJECT_NAME":"CORVUS BC2","OBJECT_ID":"2017-042X","EPOCH":"2026-02-01T23:13:03.640800","MEAN_MOTION":15.05240298,"ECCENTRICITY":0.00126055,"INCLINATION":97.388,"RA_OF_ASC_NODE":199.7853,"ARG_OF_PERICENTER":209.7296,"MEAN_ANOMALY":150.3216,"EPHEMERIS_TYPE":0,"CLASSIFICATION_TYPE":"U","NORAD_CAT_ID":42846,"ELEMENT_SET_NO":999,"REV_AT_EPOCH":46671,"BSTAR":0.00023976523,"MEAN_MOTION_DOT":3.371e-5,"MEAN_MOTION_DDOT":0},{"OBJECT_NAME":"CORVUS BC1","OBJECT_ID":"2017-042Y","EPOCH":"2026-02-01T10:44:48.661152","MEAN_MOTION":15.05499533,"ECCENTRICITY":0.00118885,"INCLINATION":97.3919,"RA_OF_ASC_NODE":200.0056,"ARG_OF_PERICENTER":185.121,"MEAN_ANOMALY":174.9898,"EPHEMERIS_TYPE":0,"CLASSIFICATION_TYPE":"U","NORAD_CAT_ID":42847,"ELEMENT_SET_NO":999,"REV_AT_EPOCH":46666,"BSTAR":0.00022454045,"MEAN_MOTION_DOT":3.175e-5,"MEAN_MOTION_DDOT":0},{"OBJECT_NAME":"MAKERSAT 0","OBJECT_ID":"2017-073D","EPOCH":"2026-02-01T22:04:08.819328","MEAN_MOTION":15.25883018,"ECCENTRICITY":0.01227016,"INCLINATION":97.4847,"RA_OF_ASC_NODE":274.8129,"ARG_OF_PERICENTER":32.7523,"MEAN_ANOMALY":328.1246,"EPHEMERIS_TYPE":0,"CLASSIFICATION_TYPE":"U","NORAD_CAT_ID":43016,"ELEMENT_SET_NO":999,"REV_AT_EPOCH":44579,"BSTAR":0.00065439018,"MEAN_MOTION_DOT":0.00020831,"MEAN_MOTION_DDOT":0},{"OBJECT_NAME":"SIRION PATHFINDER-2","OBJECT_ID":"2018-099B","EPOCH":"2026-02-01T16:20:34.219968","MEAN_MOTION":15.13070407,"ECCENTRICITY":0.00101961,"INCLINATION":97.4465,"RA_OF_ASC_NODE":84.9538,"ARG_OF_PERICENTER":55.2288,"MEAN_ANOMALY":304.9902,"EPHEMERIS_TYPE":0,"CLASSIFICATION_TYPE":"U","NORAD_CAT_ID":43759,"ELEMENT_SET_NO":999,"REV_AT_EPOCH":39212,"BSTAR":0.00031879108,"MEAN_MOTION_DOT":5.582e-5,"MEAN_MOTION_DDOT":0},{"OBJECT_NAME":"CORVUS BC4","OBJECT_ID":"2018-099K","EPOCH":"2026-02-01T15:26:33.514080","MEAN_MOTION":15.11199948,"ECCENTRICITY":0.0010186,"INCLINATION":97.4277,"RA_OF_ASC_NODE":79.5662,"ARG_OF_PERICENTER":106.5284,"MEAN_ANOMALY":253.7066,"EPHEMERIS_TYPE":0,"CLASSIFICATION_TYPE":"U","NORAD_CAT_ID":43767,"ELEMENT_SET_NO":999,"REV_AT_EPOCH":39192,"BSTAR":0.00025086619,"MEAN_MOTION_DOT":4.155e-5,"MEAN_MOTION_DDOT":0},{"OBJECT_NAME":"SPACEBEE-7","OBJECT_ID":"2018-099BL","EPOCH":"2026-02-01T15:55:39.718560","MEAN_MOTION":15.75140742,"ECCENTRICITY":0.00040821,"INCLINATION":97.4601,"RA_OF_ASC_NODE":116.3782,"ARG_OF_PERICENTER":299.6511,"MEAN_ANOMALY":60.4346,"EPHEMERIS_TYPE":0,"CLASSIFICATION_TYPE":"U","NORAD_CAT_ID":43816,"ELEMENT_SET_NO":999,"REV_AT_EPOCH":39349,"BSTAR":0.0014757411,"MEAN_MOTION_DOT":0.00225488,"MEAN_MOTION_DDOT":0},{"OBJECT_NAME":"SHIELDS 1","OBJECT_ID":"2018-104B","EPOCH":"2026-02-01T22:42:36.553824","MEAN_MOTION":16.10662095,"ECCENTRICITY":0.0002326,"INCLINATION":84.9942,"RA_OF_ASC_NODE":225.7431,"ARG_OF_PERICENTER":301.6022,"MEAN_ANOMALY":58.504,"EPHEMERIS_TYPE":0,"CLASSIFICATION_TYPE":"U","NORAD_CAT_ID":43850,"ELEMENT_SET_NO":999,"REV_AT_EPOCH":39881,"BSTAR":0.000549582,"MEAN_MOTION_DOT":0.00531139,"MEAN_MOTION_DDOT":0.00014483952}]
