SNAP-3 JIMI             
1 40975U 15058M   26032.84910543  .00005386  00000+0  38870-3 0  9991
2 40975  64.7660 287.4388 0108067 111.4924 249.7757 15.00544836 93908
PROPCUBE 1 (FLORA)      
1 40976U 15058N   26032.97966861  .00002266  00000+0  22348-3 0  9997
2 40976  64.7764 354.0137 0132081 114.1318 247.3671 14.88372634 96134
SINOD-D 3               
1 40977U 15058P   26032.97625115  .00003361  00000+0  29584-3 0  9998
2 40977  64.7748 337.6719 0120604 112.4696 248.9241 14.92826906 94564
HORYU-4                 
1 41340U 16012D   26032.88885995  .00061430  00000+0  81297-3 0  9998
2 41340  30.9936 317.2511 0002849  14.2682 345.8049 15.56987074549519
RAVAN                   
1 41849U 16067B   26032.88370938  .00033633  00000+0  75700-3 0  9994
2 41849  98.0109 267.9662 0007918 111.6567 248.5523 15.43203591506750
CELTEE 1                
1 41850U 16067C   26032.56743229  .00005762  00000+0  28659-3 0  9991
2 41850  98.0851 249.8713 0001582  42.1759 317.9595 15.18064939505295
OPTICUBE 04             
1 41851U 16067D   26032.50505402  .00003072  00000+0  19865-3 0  9996
2 41851  98.0819 237.6395 0015014 212.9628 147.0664 15.08941074504705
AEROCUBE 8D             
1 41852U 16067E   26032.84362963  .00007596  00000+0  33452-3 0  9990
2 41852  98.0869 252.7667 0002297 233.2776 126.8247 15.22157554505464
AEROCUBE 8C             
1 41853U 16067F   26032.56053140  .00008400  00000+0  36714-3 0  9993
2 41853  98.0733 249.8725 0005649 157.3509 202.7976 15.22366624505419
CORVUS BC2              
1 42846U 17042X   26032.96740325  .00003371  00000+0  23977-3 0  9991
2 42846  97.3880 199.7853 0012605 209.7296 150.3216 15.05240298466710
CORVUS BC1              
1 42847U 17042Y   26032.44778543  .00003175  00000+0  22454-3 0  9999
2 42847  97.3919 200.0056 0011888 185.1210 174.9898 15.05499533466660
MAKERSAT 0              
1 43016U 17073D   26032.91954652  .00020831  00000+0  65439-3 0  9999
2 43016  97.4847 274.8129 0122701  32.7523 328.1246 15.25883018445799
SIRION PATHFINDER-2     
1 43759U 18099B   26032.68095162  .00005582  00000+0  31879-3 0  9995
2 43759  97.4465  84.9538 0010196  55.2288 304.9902 15.13070407392121
CORVUS BC4              
1 43767U 18099K   26032.64344345  .00004155  00000+0  25087-3 0  9999
2 43767  97.4277  79.5662 0010186 106.5284 253.7066 15.11199948391923
SPACEBEE-7              
1 43816U 18099BL  26032.66365415  .00225488  00000+0  14757-2 0  9992
2 43816  97.4601 116.3782 0004082 299.6511  60.4346 15.75140742393493
SHIELDS 1               
1 43850U 18104B   26032.94625641  .00531139  14484-3  54958-3 0  9994
2 43850  84.9942 225.7431 0002326 301.6022  58.5040 16.10662095398816
